NORAD_CAT_ID,OBJECT_NAME,OBJECT_TYPE,EPOCH,MEAN_MOTION,ECCENTRICITY,INCLINATION,RA_OF_ASC_NODE,ARG_OF_PERICENTER,MEAN_ANOMALY,BSTAR,MEAN_MOTION_DOT,MEAN_MOTION_DDOT,TLE_LINE0,TLE_LINE1,TLE_LINE2,SEMIMAJOR_AXIS,PERIOD,APOGEE,PERIGEE,DECAYED
53726.0,STARLINK-4697,PAYLOAD,2023-09-08 19:46:24,15.08847723,8.73e-05,53.2178,32.0066,90.3705,269.7387,0.00013006,1.783e-05,0.0,0 STARLINK-4697,1 53726U 22107AC  23251.82389690  .00001783  00000-0  13006-3 0  9995,2 53726  53.2178  32.0066 0000873  90.3705 269.7387 15.08847723 56604,6917.857,95.437,540.326,539.118,0.0
53726.0,STARLINK-4697,PAYLOAD,2023-09-09 10:04:53,15.0883581,8.04e-05,53.2179,29.3285,81.5823,278.5261,1.4804e-05,-5.2e-07,0.0,0 STARLINK-4697,1 53726U 22107AC  23252.42006402 -.00000052  00000-0  14804-4 0  9996,2 53726  53.2179  29.3285 0000804  81.5823 278.5261 15.08835810 56236,6917.893,95.438,540.314,539.202,0.0
53726.0,STARLINK-4697,PAYLOAD,2023-09-09 13:15:39,15.08839388,0.0001227,53.2195,28.7362,77.8849,282.228,0.0001025,1.344e-05,0.0,0 STARLINK-4697,1 53726U 22107AC  23252.55254526  .00001344  00000-0  10250-3 0  9996,2 53726  53.2195  28.7362 0001227  77.8849 282.2280 15.08839388 56719,6917.882,95.438,540.596,538.898,0.0
53726.0,STARLINK-4697,PAYLOAD,2023-09-09 14:51:02,15.08849032,0.0001311,53.2193,28.44,103.2477,256.8662,0.00022797,3.343e-05,0.0,0 STARLINK-4697,1 53726U 22107AC  23252.61877838  .00003343  00000-0  22797-3 0  9990,2 53726  53.2193  28.4400 0001311 103.2477 256.8662 15.08849032 56260,6917.853,95.437,540.625,538.811,0.0
53726.0,STARLINK-4697,PAYLOAD,2023-09-10 08:20:16,15.08846549,0.0001446,53.2201,25.1711,102.45,257.6654,0.00010213,1.338e-05,0.0,0 STARLINK-4697,1 53726U 22107AC  23253.34741767  .00001338  00000-0  10213-3 0  9994,2 53726  53.2201  25.1711 0001446 102.4500 257.6654 15.08846549 56378,6917.86,95.437,540.726,538.725,0.0
53726.0,STARLINK-4697,PAYLOAD,2023-09-10 13:06:26,15.08838096,0.0001685,53.2206,24.2771,96.0855,264.033,-2.0207e-05,-6.1e-06,0.0,0 STARLINK-4697,1 53726U 22107AC  23253.54614338 -.00000610  00000-0 -20207-4 0  9998,2 53726  53.2206  24.2771 0001685  96.0855 264.0330 15.08838096 56860,6917.886,95.438,540.917,538.586,0.0
53726.0,STARLINK-4697,PAYLOAD,2023-09-10 16:17:12,15.08844395,0.0001059,53.2194,23.6804,96.4108,263.7005,2.2889e-05,7.7e-07,0.0,0 STARLINK-4697,1 53726U 22107AC  23253.67862125  .00000077  00000-0  22889-4 0  9994,2 53726  53.2194  23.6804 0001059  96.4108 263.7005 15.08844395 56422,6917.867,95.437,540.465,538.999,0.0
53726.0,STARLINK-4697,PAYLOAD,2023-09-11 05:00:18,15.08837788,0.000124,53.2191,21.3014,95.4586,264.6548,8.4901e-05,1.064e-05,0.0,0 STARLINK-4697,1 53726U 22107AC  23254.20854566  .00001064  00000-0  84901-4 0  9994,2 53726  53.2191  21.3014 0001240  95.4586 264.6548 15.08837788 56507,6917.887,95.438,540.61,538.894,0.0
53726.0,STARLINK-4697,PAYLOAD,2023-09-11 14:32:37,15.08840015,0.0001109,53.2194,19.518,93.5519,266.56,-4.5469e-05,-1.011e-05,0.0,0 STARLINK-4697,1 53726U 22107AC  23254.60598848 -.00001011  00000-0 -45469-4 0  9996,2 53726  53.2194  19.5180 0001109  93.5519 266.5600 15.08840015 57027,6917.88,95.438,540.513,538.978,0.0
53726.0,STARLINK-4697,PAYLOAD,2023-09-12 08:01:51,15.0883415,9.7e-05,53.2195,16.2464,93.5122,266.5981,0.00015649,2.203e-05,0.0,0 STARLINK-4697,1 53726U 22107AC  23255.33462639  .00002203  00000-0  15649-3 0  9993,2 53726  53.2195  16.2464 0000970  93.5122 266.5981 15.08834150 56677,6917.898,95.438,540.434,539.092,0.0
53726.0,STARLINK-4697,PAYLOAD,2023-09-12 14:23:23,15.08847909,0.0001209,53.2185,15.0565,88.1068,272.0063,0.00013944,1.932e-05,0.0,0 STARLINK-4697,1 53726U 22107AC  23255.59957898  .00001932  00000-0  13944-3 0  9991,2 53726  53.2185  15.0565 0001209  88.1068 272.0063 15.08847909 57175,6917.856,95.437,540.558,538.885,0.0
53726.0,STARLINK-4697,PAYLOAD,2023-09-13 12:38:47,15.08846831,0.0001442,53.2189,10.8946,86.1489,273.9668,0.00021764,3.178e-05,0.0,0 STARLINK-4697,1 53726U 22107AC  23256.52694051  .00003178  00000-0  21764-3 0  9997,2 53726  53.2189  10.8946 0001442  86.1489 273.9668 15.08846831 57319,6917.86,95.437,540.722,538.727,0.0
53726.0,STARLINK-4697,PAYLOAD,2023-09-13 14:14:10,15.08847771,0.0001453,53.2189,10.5973,85.5549,274.5609,0.00022171,3.243e-05,0.0,0 STARLINK-4697,1 53726U 22107AC  23256.59317981  .00003243  00000-0  22171-3 0  9994,2 53726  53.2189  10.5973 0001453  85.5549 274.5609 15.08847771 56863,6917.857,95.437,540.727,538.716,0.0
53726.0,STARLINK-4697,PAYLOAD,2023-09-14 10:54:12,15.08827938,0.0001441,53.2193,6.732,92.8729,267.2428,-0.00015278,-2.718e-05,0.0,0 STARLINK-4697,1 53726U 22107AC  23257.45431403 -.00002718  00000-0 -15278-3 0  9994,2 53726  53.2193   6.7320 0001441  92.8729 267.2428 15.08827938 56994,6917.917,95.438,540.779,538.785,0.0
53726.0,STARLINK-4697,PAYLOAD,2023-09-14 12:29:35,15.08826124,0.0001402,53.219,6.4345,98.7484,261.3668,-0.00017379,-3.052e-05,0.0,0 STARLINK-4697,1 53726U 22107AC  23257.52055509 -.00003052  00000-0 -17379-3 0  9997,2 53726  53.2190   6.4345 0001402  98.7484 261.3668 15.08826124 57465,6917.923,95.438,540.758,538.818,0.0
53726.0,STARLINK-4697,PAYLOAD,2023-09-14 17:15:46,15.08826653,0.0001188,53.2188,5.5413,89.9112,270.2016,-0.00011722,-2.152e-05,0.0,0 STARLINK-4697,1 53726U 22107AC  23257.71928266 -.00002152  00000-0 -11722-3 0  9993,2 53726  53.2188   5.5413 0001188  89.9112 270.2016 15.08826653 57495,6917.921,95.438,540.608,538.964,0.0
53726.0,STARLINK-4697,PAYLOAD,2023-09-15 10:44:59,15.08842667,0.0001113,53.2199,2.2709,81.9806,278.1312,0.0001083,1.436e-05,0.0,0 STARLINK-4697,1 53726U 22107AC  23258.44790949  .00001436  00000-0  10830-3 0  9990,2 53726  53.2199   2.2709 0001113  81.9806 278.1312 15.08842667 57140,6917.872,95.437,540.507,538.967,0.0
53726.0,STARLINK-4697,PAYLOAD,2023-09-15 12:20:21,15.08850749,0.0001161,53.2198,1.9735,101.2331,258.8792,0.00018025,2.583e-05,0.0,0 STARLINK-4697,1 53726U 22107AC  23258.51414154  .00002583  00000-0  18025-3 0  9997,2 53726  53.2198   1.9735 0001161 101.2331 258.8792 15.08850749 57615,6917.848,95.437,540.516,538.909,0.0
53726.0,STARLINK-4697,PAYLOAD,2023-09-15 13:55:45,15.08851918,0.0001238,53.2199,1.6754,98.0727,262.0406,7.0447e-05,8.34e-06,0.0,0 STARLINK-4697,1 53726U 22107AC  23258.58038271  .00000834  00000-0  70447-4 0  9990,2 53726  53.2199   1.6754 0001238  98.0727 262.0406 15.08851918 57169,6917.844,95.437,540.565,538.853,0.0
53726.0,STARLINK-4697,PAYLOAD,2023-09-15 23:28:04,15.08844338,0.0001524,53.2196,359.8929,71.0532,289.0625,2.2843e-05,7.6e-07,0.0,0 STARLINK-4697,1 53726U 22107AC  23258.97782991  .00000076  00000-0  22843-4 0  9993,2 53726  53.2196 359.8929 0001524  71.0532 289.0625 15.08844338 57228,6917.867,95.437,540.786,538.678,0.0
53726.0,STARLINK-4697,PAYLOAD,2023-09-16 07:25:00,15.08829721,0.0001344,53.2203,358.4069,87.91,272.2046,0.00023905,3.518e-05,0.0,0 STARLINK-4697,1 53726U 22107AC  23259.30903753  .00003518  00000-0  23905-3 0  9995,2 53726  53.2203 358.4069 0001344  87.9100 272.2046 15.08829721 57279,6917.912,95.438,540.707,538.847,0.0
53726.0,STARLINK-4697,PAYLOAD,2023-09-16 12:11:10,15.08832549,0.0001331,53.2201,357.5148,87.2658,272.8486,0.00023611,3.471e-05,0.0,0 STARLINK-4697,1 53726U 22107AC  23259.50775696  .00003471  00000-0  23611-3 0  9992,2 53726  53.2201 357.5148 0001331  87.2658 272.8486 15.08832549 57762,6917.903,95.438,540.689,538.847,0.0
53726.0,STARLINK-4697,PAYLOAD,2023-09-17 13:37:19,15.08850947,0.0001346,53.2205,352.7572,75.1227,284.9914,8.3116e-05,1.035e-05,0.0,0 STARLINK-4697,1 53726U 22107AC  23260.56759122  .00001035  00000-0  83116-4 0  9997,2 53726  53.2205 352.7572 0001346  75.1227 284.9914 15.08850947 57928,6917.847,95.437,540.643,538.781,0.0
53726.0,STARLINK-4697,PAYLOAD,2023-09-18 10:17:21,15.08840232,0.0001257,53.2204,348.891,81.4188,278.6946,5.2057e-05,5.41e-06,0.0,0 STARLINK-4697,1 53726U 22107AC  23261.42871579  .00000541  00000-0  52057-4 0  9995,2 53726  53.2204 348.8910 0001257  81.4188 278.6946 15.08840232 57590,6917.88,95.438,540.614,538.875,0.0
53726.0,STARLINK-4697,PAYLOAD,2023-09-18 13:28:07,15.08846179,0.0001616,53.2198,348.2955,83.5849,276.5327,6.1677e-05,6.94e-06,0.0,0 STARLINK-4697,1 53726U 22107AC  23261.56119223  .00000694  00000-0  61677-4 0  9998,2 53726  53.2198 348.2955 0001616  83.5849 276.5327 15.08846179 58071,6917.862,95.437,540.844,538.609,0.0
53726.0,STARLINK-4697,PAYLOAD,2023-09-19 10:08:07,15.08848559,0.0001315,53.2189,344.4309,82.6051,277.509,0.00012173,1.65e-05,0.0,0 STARLINK-4697,1 53726U 22107AC  23262.42230549  .00001650  00000-0  12173-3 0  9998,2 53726  53.2189 344.4309 0001315  82.6051 277.5090 15.08848559 57748,6917.854,95.437,540.629,538.81,0.0
53726.0,STARLINK-4697,PAYLOAD,2023-09-19 13:18:52,15.08862889,0.0001517,53.2201,343.8353,76.6005,283.5156,0.00017767,2.542e-05,0.0,0 STARLINK-4697,1 53726U 22107AC  23262.55477380  .00002542  00000-0  17767-3 0  9993,2 53726  53.2201 343.8353 0001517  76.6005 283.5156 15.08862889 57765,6917.81,95.436,540.725,538.626,0.0
53726.0,STARLINK-4697,PAYLOAD,2023-09-20 11:34:18,15.08839643,0.0001506,53.2196,339.6721,77.1511,282.965,-4.4836e-05,-1.001e-05,0.0,0 STARLINK-4697,1 53726U 22107AC  23263.48215449 -.00001001  00000-0 -44836-4 0  9991,2 53726  53.2196 339.6721 0001506  77.1511 282.9650 15.08839643 57906,6917.881,95.438,540.788,538.705,0.0
53726.0,STARLINK-4697,PAYLOAD,2023-09-21 11:25:05,15.0883963,0.0001449,53.2198,335.2124,85.9113,274.2045,-9.5313e-05,-1.805e-05,0.0,0 STARLINK-4697,1 53726U 22107AC  23264.47575802 -.00001805  00000-0 -95313-4 0  9991,2 53726  53.2198 335.2124 0001449  85.9113 274.2045 15.08839630 58514,6917.882,95.438,540.749,538.744,0.0
53726.0,STARLINK-4697,PAYLOAD,2023-09-22 09:40:31,15.08818226,0.0001555,53.2196,331.0507,81.3055,278.8113,-1.015e-05,-4.49e-06,0.0,0 STARLINK-4697,1 53726U 22107AC  23265.40313746 -.00000449  00000-0 -10150-4 0  9991,2 53726  53.2196 331.0507 0001555  81.3055 278.8113 15.08818226 58192,6917.947,95.439,540.888,538.736,0.0
